[{"OBJECT_NAME":"STARLINK-32670","OBJECT_ID":"2024-229U","EPOCH":"2026-03-09T22:55:40.443744","MEAN_MOTION":15.27595716,"ECCENTRICITY":0.00012149,"INCLINATION":43.0008,"RA_OF_ASC_NODE":269.071,"ARG_OF_PERICENTER":347.935,"MEAN_ANOMALY":12.1472,"EPHEMERIS_TYPE":0,"CLASSIFICATION_TYPE":"U","NORAD_CAT_ID":62210,"ELEMENT_SET_NO":999,"REV_AT_EPOCH":7060,"BSTAR":0.00093602336,"MEAN_MOTION_DOT":0.00025597,"MEAN_MOTION_DDOT":0},{"OBJECT_NAME":"OBJECT L","OBJECT_ID":"2024-024L","EPOCH":"2026-03-09T22:36:05.522976","MEAN_MOTION":15.29373491,"ECCENTRICITY":0.00073185,"INCLINATION":97.3169,"RA_OF_ASC_NODE":137.7038,"ARG_OF_PERICENTER":167.6369,"MEAN_ANOMALY":192.5052,"EPHEMERIS_TYPE":0,"CLASSIFICATION_TYPE":"U","NORAD_CAT_ID":58927,"ELEMENT_SET_NO":999,"REV_AT_EPOCH":9318,"BSTAR":0.00043092344,"MEAN_MOTION_DOT":0.00012217,"MEAN_MOTION_DDOT":0}]
